DELTA 2 R/B(1)          
1 20453U 90008B   25345.20022780  .00053783  00000+0  86562-3 0  9996
2 20453  35.6071  30.4745 0111499 164.5816 195.8354 15.45018416912391
COSMOS 2058             
1 20465U 90010A   25345.16801985  .00007395  00000+0  44770-3 0  9992
2 20465  82.4659 134.5762 0008256 279.6608  80.3689 15.10443370928876
SL-14 R/B               
1 20466U 90010B   25345.12661668  .00000679  00000+0  79632-4 0  9995
2 20466  82.5019 350.5622 0018610 228.8027 131.1584 14.83468786915354
SL-14 R/B               
1 20511U 90018B   25344.85675344  .00000827  00000+0  10104-3 0  9992
2 20511  82.5208 306.1244 0017165  29.3163 330.9011 14.82043428909427
HST                     
1 20580U 90037B   25345.15930250  .00010933  00000+0  38044-3 0  9995
2 20580  28.4688 283.2470 0001816 218.9072 141.1392 15.28014891759757
SL-16 R/B               
1 20625U 90046B   25345.11998403 -.00000005  00000+0  22005-4 0  9996
2 20625  70.9990 123.9228 0011830  76.2133 284.0305 14.15001328835860
COSMOS 2084             
1 20663U 90055A   25345.17274348  .00004534  00000+0  32850-3 0  9997
2 20663  62.7908 277.3326 0031989 174.4987 185.6471 15.05001723922998
SL-6 R/B(2)             
1 20666U 90055D   25344.83800360  .00002898  00000+0  22820-3 0  9998
2 20666  62.7824 195.8776 0012523 307.3947  52.6012 15.03061570924830
SL-8 R/B                
1 20775U 90078B   25345.04760935  .00030968  00000+0  95821-3 0  9991
2 20775  82.9052 330.8251 0372681 311.6088  45.3740 14.85830171796121
SL-8 R/B                
1 21088U 91006B   25345.23674102  .00000070  00000+0  55203-4 0  9994
2 21088  82.9430 235.8307 0021258 284.3443 192.8008 13.77489646751894
OKEAN-3                 
1 21397U 91039A   25345.21860002  .00005204  00000+0  37321-3 0  9991
2 21397  82.5168  62.5193 0012832 272.1904  87.7853 15.04099966851732
COSMOS 2151             
1 21422U 91042A   25345.15532362  .00002512  00000+0  20139-3 0  9990
2 21422  82.4961 169.0302 0012670   5.1532 354.9820 14.99677246849924
