CCSDS_OMM_VERS = 2.0
CREATION_DATE  = 
ORIGINATOR     = 

OBJECT_NAME    = DELTA 2 R/B(1)
OBJECT_ID      = 1990-008B
CENTER_NAME    = EARTH
REF_FRAME      = TEME
TIME_SYSTEM    = UTC
MEAN_ELEMENT_THEORY = SGP/SGP4

EPOCH          = 2025-12-11T04:48:19.681920
MEAN_MOTION    = 15.45018416
ECCENTRICITY   = .0111499
INCLINATION    = 35.6071
RA_OF_ASC_NODE = 30.4745
ARG_OF_PERICENTER = 164.5816
MEAN_ANOMALY   = 195.8354

EPHEMERIS_TYPE = 0
CLASSIFICATION_TYPE = U
NORAD_CAT_ID   = 20453
ELEMENT_SET_NO = 999
REV_AT_EPOCH   = 91239
BSTAR          = .86562E-3
MEAN_MOTION_DOT = .53783E-3
MEAN_MOTION_DDOT = 0

CCSDS_OMM_VERS = 2.0
CREATION_DATE  = 
ORIGINATOR     = 

OBJECT_NAME    = COSMOS 2058
OBJECT_ID      = 1990-010A
CENTER_NAME    = EARTH
REF_FRAME      = TEME
TIME_SYSTEM    = UTC
MEAN_ELEMENT_THEORY = SGP/SGP4

EPOCH          = 2025-12-11T04:01:56.915040
MEAN_MOTION    = 15.10443370
ECCENTRICITY   = .0008256
INCLINATION    = 82.4659
RA_OF_ASC_NODE = 134.5762
ARG_OF_PERICENTER = 279.6608
MEAN_ANOMALY   = 80.3689

EPHEMERIS_TYPE = 0
CLASSIFICATION_TYPE = U
NORAD_CAT_ID   = 20465
ELEMENT_SET_NO = 999
REV_AT_EPOCH   = 92887
BSTAR          = .4477E-3
MEAN_MOTION_DOT = .7395E-4
MEAN_MOTION_DDOT = 0

CCSDS_OMM_VERS = 2.0
CREATION_DATE  = 
ORIGINATOR     = 

OBJECT_NAME    = SL-14 R/B
OBJECT_ID      = 1990-010B
CENTER_NAME    = EARTH
REF_FRAME      = TEME
TIME_SYSTEM    = UTC
MEAN_ELEMENT_THEORY = SGP/SGP4

EPOCH          = 2025-12-11T03:02:19.681152
MEAN_MOTION    = 14.83468786
ECCENTRICITY   = .001861
INCLINATION    = 82.5019
RA_OF_ASC_NODE = 350.5622
ARG_OF_PERICENTER = 228.8027
MEAN_ANOMALY   = 131.1584

EPHEMERIS_TYPE = 0
CLASSIFICATION_TYPE = U
NORAD_CAT_ID   = 20466
ELEMENT_SET_NO = 999
REV_AT_EPOCH   = 91535
BSTAR          = .79632E-4
MEAN_MOTION_DOT = .679E-5
MEAN_MOTION_DDOT = 0

CCSDS_OMM_VERS = 2.0
CREATION_DATE  = 
ORIGINATOR     = 

OBJECT_NAME    = SL-14 R/B
OBJECT_ID      = 1990-018B
CENTER_NAME    = EARTH
REF_FRAME      = TEME
TIME_SYSTEM    = UTC
MEAN_ELEMENT_THEORY = SGP/SGP4

EPOCH          = 2025-12-10T20:33:43.497216
MEAN_MOTION    = 14.82043428
ECCENTRICITY   = .0017165
INCLINATION    = 82.5208
RA_OF_ASC_NODE = 306.1244
ARG_OF_PERICENTER = 29.3163
MEAN_ANOMALY   = 330.9011

EPHEMERIS_TYPE = 0
CLASSIFICATION_TYPE = U
NORAD_CAT_ID   = 20511
ELEMENT_SET_NO = 999
REV_AT_EPOCH   = 90942
BSTAR          = .10104E-3
MEAN_MOTION_DOT = .827E-5
MEAN_MOTION_DDOT = 0

CCSDS_OMM_VERS = 2.0
CREATION_DATE  = 
ORIGINATOR     = 

OBJECT_NAME    = HST
OBJECT_ID      = 1990-037B
CENTER_NAME    = EARTH
REF_FRAME      = TEME
TIME_SYSTEM    = UTC
MEAN_ELEMENT_THEORY = SGP/SGP4

EPOCH          = 2025-12-11T03:49:23.736000
MEAN_MOTION    = 15.28014891
ECCENTRICITY   = .0001816
INCLINATION    = 28.4688
RA_OF_ASC_NODE = 283.2470
ARG_OF_PERICENTER = 218.9072
MEAN_ANOMALY   = 141.1392

EPHEMERIS_TYPE = 0
CLASSIFICATION_TYPE = U
NORAD_CAT_ID   = 20580
ELEMENT_SET_NO = 999
REV_AT_EPOCH   = 75975
BSTAR          = .38044E-3
MEAN_MOTION_DOT = .10933E-3
MEAN_MOTION_DDOT = 0

CCSDS_OMM_VERS = 2.0
CREATION_DATE  = 
ORIGINATOR     = 

OBJECT_NAME    = SL-16 R/B
OBJECT_ID      = 1990-046B
CENTER_NAME    = EARTH
REF_FRAME      = TEME
TIME_SYSTEM    = UTC
MEAN_ELEMENT_THEORY = SGP/SGP4

EPOCH          = 2025-12-11T02:52:46.620192
MEAN_MOTION    = 14.15001328
ECCENTRICITY   = .001183
INCLINATION    = 70.9990
RA_OF_ASC_NODE = 123.9228
ARG_OF_PERICENTER = 76.2133
MEAN_ANOMALY   = 284.0305

EPHEMERIS_TYPE = 0
CLASSIFICATION_TYPE = U
NORAD_CAT_ID   = 20625
ELEMENT_SET_NO = 999
REV_AT_EPOCH   = 83586
BSTAR          = .22005E-4
MEAN_MOTION_DOT = -.5E-7
MEAN_MOTION_DDOT = 0

CCSDS_OMM_VERS = 2.0
CREATION_DATE  = 
ORIGINATOR     = 

OBJECT_NAME    = COSMOS 2084
OBJECT_ID      = 1990-055A
CENTER_NAME    = EARTH
REF_FRAME      = TEME
TIME_SYSTEM    = UTC
MEAN_ELEMENT_THEORY = SGP/SGP4

EPOCH          = 2025-12-11T04:08:45.036672
MEAN_MOTION    = 15.05001723
ECCENTRICITY   = .0031989
INCLINATION    = 62.7908
RA_OF_ASC_NODE = 277.3326
ARG_OF_PERICENTER = 174.4987
MEAN_ANOMALY   = 185.6471

EPHEMERIS_TYPE = 0
CLASSIFICATION_TYPE = U
NORAD_CAT_ID   = 20663
ELEMENT_SET_NO = 999
REV_AT_EPOCH   = 92299
BSTAR          = .3285E-3
MEAN_MOTION_DOT = .4534E-4
MEAN_MOTION_DDOT = 0

CCSDS_OMM_VERS = 2.0
CREATION_DATE  = 
ORIGINATOR     = 

OBJECT_NAME    = SL-6 R/B(2)
OBJECT_ID      = 1990-055D
CENTER_NAME    = EARTH
REF_FRAME      = TEME
TIME_SYSTEM    = UTC
MEAN_ELEMENT_THEORY = SGP/SGP4

EPOCH          = 2025-12-10T20:06:43.511040
MEAN_MOTION    = 15.03061570
ECCENTRICITY   = .0012523
INCLINATION    = 62.7824
RA_OF_ASC_NODE = 195.8776
ARG_OF_PERICENTER = 307.3947
MEAN_ANOMALY   = 52.6012

EPHEMERIS_TYPE = 0
CLASSIFICATION_TYPE = U
NORAD_CAT_ID   = 20666
ELEMENT_SET_NO = 999
REV_AT_EPOCH   = 92483
BSTAR          = .2282E-3
MEAN_MOTION_DOT = .2898E-4
MEAN_MOTION_DDOT = 0

CCSDS_OMM_VERS = 2.0
CREATION_DATE  = 
ORIGINATOR     = 

OBJECT_NAME    = SL-8 R/B
OBJECT_ID      = 1990-078B
CENTER_NAME    = EARTH
REF_FRAME      = TEME
TIME_SYSTEM    = UTC
MEAN_ELEMENT_THEORY = SGP/SGP4

EPOCH          = 2025-12-11T01:08:33.447840
MEAN_MOTION    = 14.85830171
ECCENTRICITY   = .0372681
INCLINATION    = 82.9052
RA_OF_ASC_NODE = 330.8251
ARG_OF_PERICENTER = 311.6088
MEAN_ANOMALY   = 45.3740

EPHEMERIS_TYPE = 0
CLASSIFICATION_TYPE = U
NORAD_CAT_ID   = 20775
ELEMENT_SET_NO = 999
REV_AT_EPOCH   = 79612
BSTAR          = .95821E-3
MEAN_MOTION_DOT = .30968E-3
MEAN_MOTION_DDOT = 0

CCSDS_OMM_VERS = 2.0
CREATION_DATE  = 
ORIGINATOR     = 

OBJECT_NAME    = SL-8 R/B
OBJECT_ID      = 1991-006B
CENTER_NAME    = EARTH
REF_FRAME      = TEME
TIME_SYSTEM    = UTC
MEAN_ELEMENT_THEORY = SGP/SGP4

EPOCH          = 2025-12-11T05:40:54.424128
MEAN_MOTION    = 13.77489646
ECCENTRICITY   = .0021258
INCLINATION    = 82.9430
RA_OF_ASC_NODE = 235.8307
ARG_OF_PERICENTER = 284.3443
MEAN_ANOMALY   = 192.8008

EPHEMERIS_TYPE = 0
CLASSIFICATION_TYPE = U
NORAD_CAT_ID   = 21088
ELEMENT_SET_NO = 999
REV_AT_EPOCH   = 75189
BSTAR          = .55203E-4
MEAN_MOTION_DOT = .7E-6
MEAN_MOTION_DDOT = 0

CCSDS_OMM_VERS = 2.0
CREATION_DATE  = 
ORIGINATOR     = 

OBJECT_NAME    = OKEAN-3
OBJECT_ID      = 1991-039A
CENTER_NAME    = EARTH
REF_FRAME      = TEME
TIME_SYSTEM    = UTC
MEAN_ELEMENT_THEORY = SGP/SGP4

EPOCH          = 2025-12-11T05:14:47.041728
MEAN_MOTION    = 15.04099966
ECCENTRICITY   = .0012832
INCLINATION    = 82.5168
RA_OF_ASC_NODE = 62.5193
ARG_OF_PERICENTER = 272.1904
MEAN_ANOMALY   = 87.7853

EPHEMERIS_TYPE = 0
CLASSIFICATION_TYPE = U
NORAD_CAT_ID   = 21397
ELEMENT_SET_NO = 999
REV_AT_EPOCH   = 85173
BSTAR          = .37321E-3
MEAN_MOTION_DOT = .5204E-4
MEAN_MOTION_DDOT = 0

CCSDS_OMM_VERS = 2.0
CREATION_DATE  = 
ORIGINATOR     = 

OBJECT_NAME    = COSMOS 2151
OBJECT_ID      = 1991-042A
CENTER_NAME    = EARTH
REF_FRAME      = TEME
TIME_SYSTEM    = UTC
MEAN_ELEMENT_THEORY = SGP/SGP4

EPOCH          = 2025-12-11T03:43:39.960768
MEAN_MOTION    = 14.99677246
ECCENTRICITY   = .001267
INCLINATION    = 82.4961
RA_OF_ASC_NODE = 169.0302
ARG_OF_PERICENTER = 5.1532
MEAN_ANOMALY   = 354.9820

EPHEMERIS_TYPE = 0
CLASSIFICATION_TYPE = U
NORAD_CAT_ID   = 21422
ELEMENT_SET_NO = 999
REV_AT_EPOCH   = 84992
BSTAR          = .20139E-3
MEAN_MOTION_DOT = .2512E-4
MEAN_MOTION_DDOT = 0

